#dV2023  1 27 10  0  0.00000000    1682       CTS   FIT  GFZ
## 2246 468000.00000000    30.00000000 59971 0.4166666666667
+    1   L64  0  0  0  0  0  0  0  0  0  0  0  0  0  0  0  0
+          0  0  0  0  0  0  0  0  0  0  0  0  0  0  0  0  0
+          0  0  0  0  0  0  0  0  0  0  0  0  0  0  0  0  0
+          0  0  0  0  0  0  0  0  0  0  0  0  0  0  0  0  0
+          0  0  0  0  0  0  0  0  0  0  0  0  0  0  0  0  0
++         0  0  0  0  0  0  0  0  0  0  0  0  0  0  0  0  0
++         0  0  0  0  0  0  0  0  0  0  0  0  0  0  0  0  0
++         0  0  0  0  0  0  0  0  0  0  0  0  0  0  0  0  0
++         0  0  0  0  0  0  0  0  0  0  0  0  0  0  0  0  0
++         0  0  0  0  0  0  0  0  0  0  0  0  0  0  0  0  0
%c L  cc GPS ccc cccc cccc cccc cccc ccccc ccccc ccccc ccccc
%c cc cc ccc ccc cccc cccc cccc cccc ccccc ccccc ccccc ccccc
%f  0.0000000  0.000000000  0.00000000000  0.000000000000000
%f  0.0000000  0.000000000  0.00000000000  0.000000000000000
%i    0    0    0    0      0      0      0      0         0
%i    0    0    0    0      0      0      0      0         0
/* CCCCCCCCCCCCCCCCCCCCCCCCCCCCCCCCCCCCCCCCCCCCCCCCCCCCCCCCCCCCCCCCCCCCCCCCCCCCC
/* C                             GFZ RSO-ORBIT                                 C
/* C DOI: https://doi.org/10.5880/GFZ_ORBIT/RSO/L64_G_v02                      C
/* C                                                                           C
/* C DORIS        RMS: not applicable                                          C
/* C GNSS-E Code  RMS: not applicable                                          C
/* C GNSS-E Phase RMS: not applicable                                          C
/* C GNSS-G Code  RMS:  49.778 [cm]   Obs.acc.:     13105 Obs.eli.:      1221  C
/* C GNSS-G Phase RMS:   4.139 [mm]   Obs.acc.:     13105 Obs.eli.:      1221  C
/* C SLR          RMS:   1.484 [cm]   Obs.acc.:        60 Obs.eli.:         0  C
/* C                                                                           C
/* CCCCCCCCCCCCCCCCCCCCCCCCCCCCCCCCCCCCCCCCCCCCCCCCCCCCCCCCCCCCCCCCCCCCCCCCCCCCC
*  2023  1 27 17 13 30.00000000
PL64   6582.815668  -1994.120182    154.815506    -27.829427
VL64  -2751.135367  -3010.932380  76058.517549 999999.999999
*  2023  1 27 17 14  0.00000000
PL64   6570.930800  -2002.032910    382.863387    -27.369809
VL64  -5170.858749  -2261.965806  75959.387144 999999.999999
*  2023  1 27 17 14 30.00000000
PL64   6551.799392  -2007.678891    610.487796    -26.911075
VL64  -7581.706023  -1499.913960  75776.227807 999999.999999
*  2023  1 27 17 15  0.00000000
PL64   6525.452164  -2011.020194    837.436918    -26.453082
VL64  -9980.953616   -725.663291  75509.235602 999999.999999
*  2023  1 27 17 15 30.00000000
PL64   6491.927979  -2012.021584   1063.459665    -25.995041
VL64 -12365.893594     59.873593  75158.701402 999999.999999
*  2023  1 27 17 16  0.00000000
PL64   6451.273799  -2010.650603   1288.305967    -25.536437
VL64 -14733.837627    855.758495  74725.011378 999999.999999
*  2023  1 27 17 16 30.00000000
PL64   6403.544614  -2006.877646   1511.727056    -25.077393
VL64 -17082.121301   1661.029192  74208.646874 999999.999999
*  2023  1 27 17 17  0.00000000
PL64   6348.803369  -2000.676025   1733.475745    -24.618205
VL64 -19408.107562   2474.702053  73610.182459 999999.999999
*  2023  1 27 17 17 30.00000000
PL64   6287.120876  -1992.022034   1953.306714    -24.158680
VL64 -21709.188428   3295.773898  72930.284682 999999.999999
*  2023  1 27 17 18  0.00000000
PL64   6218.575721  -1980.895004   2170.976776    -23.698942
VL64 -23982.788018   4123.223260  72169.712470 999999.999999
*  2023  1 27 17 18 30.00000000
PL64   6143.254169  -1967.277355   2386.245162    -23.239269
VL64 -26226.367108   4956.011383  71329.316348 999999.999999
*  2023  1 27 17 19  0.00000000
PL64   6061.250039  -1951.154652   2598.873787    -22.779495
VL64 -28437.426909   5793.082744  70410.036374 999999.999999
*  2023  1 27 17 19 30.00000000
PL64   5972.664584  -1932.515647   2808.627521    -22.319793
VL64 -30613.511524   6633.365786  69412.900120 999999.999999
*  2023  1 27 17 20  0.00000000
PL64   5877.606358  -1911.352330   3015.274443    -21.860055
VL64 -32752.209890   7475.775133  68339.021650 999999.999999
*  2023  1 27 17 20 30.00000000
PL64   5776.191077  -1887.659966   3218.586105    -21.400304
VL64 -34851.158237   8319.213969  67189.600230 999999.999999
*  2023  1 27 17 21  0.00000000
PL64   5668.541474  -1861.437125   3418.337782    -20.940601
VL64 -36908.042850   9162.574438  65965.919082 999999.999999
*  2023  1 27 17 21 30.00000000
PL64   5554.787145  -1832.685715   3614.308723    -20.480937
VL64 -38920.603768  10004.738917  64669.343837 999999.999999
*  2023  1 27 17 22  0.00000000
PL64   5435.064381  -1801.411012   3806.282394    -20.021270
VL64 -40886.636732  10844.582080  63301.319741 999999.999999
*  2023  1 27 17 22 30.00000000
PL64   5309.516002  -1767.621676   3994.046714    -19.561622
VL64 -42803.994604  11680.971950  61863.370733 999999.999999
*  2023  1 27 17 23  0.00000000
PL64   5178.291178  -1731.329770   4177.394291    -19.101991
VL64 -44670.590865  12512.771821  60357.097616 999999.999999
*  2023  1 27 17 23 30.00000000
PL64   5041.545245  -1692.550774   4356.122648    -18.642343
VL64 -46484.401283  13338.842356  58784.175399 999999.999999
*  2023  1 27 17 24  0.00000000
PL64   4899.439518  -1651.303586   4530.034440    -18.182644
VL64 -48243.465762  14158.043161  57146.352080 999999.999999
*  2023  1 27 17 24 30.00000000
PL64   4752.141092  -1607.610525   4698.937676    -17.722734
VL64 -49945.890590  14969.233821  55445.446189 999999.999999
*  2023  1 27 17 25  0.00000000
PL64   4599.822642  -1561.497333   4862.645920    -17.262936
VL64 -51589.849781  15771.274698  53683.345151 999999.999999
*  2023  1 27 17 25 30.00000000
PL64   4442.662217  -1512.993164   5020.978504    -16.803246
VL64 -53173.587914  16563.028672  51862.003981 999999.999999
*  2023  1 27 17 26  0.00000000
PL64   4280.843021  -1462.130581   5173.760721    -16.343570
VL64 -54695.422931  17343.363127  49983.442097 999999.999999
*  2023  1 27 17 26 30.00000000
PL64   4114.553192  -1408.945532   5320.824015    -15.883860
VL64 -56153.747693  18111.151401  48049.739984 999999.999999
*  2023  1 27 17 27  0.00000000
PL64   3943.985578  -1353.477338   5462.006158    -15.424482
VL64 -57547.031425  18865.273951  46063.036256 999999.999999
*  2023  1 27 17 27 30.00000000
PL64   3769.337501  -1295.768666   5597.151423    -14.965445
VL64 -58873.820694  19604.619425  44025.524954 999999.999999
*  2023  1 27 17 28  0.00000000
PL64   3590.810526  -1235.865501   5726.110746    -14.506481
VL64 -60132.739961  20328.086316  41939.453605 999999.999999
*  2023  1 27 17 28 30.00000000
PL64   3408.610230  -1173.817116   5848.741882    -14.047732
VL64 -61322.492843  21034.585078  39807.121209 999999.999999
*  2023  1 27 17 29  0.00000000
PL64   3222.945954  -1109.676035   5964.909558    -13.588860
VL64 -62441.863623  21723.039799  37630.875033 999999.999999
*  2023  1 27 17 29 30.00000000
PL64   3034.030568  -1043.497983   6074.485609    -13.129762
VL64 -63489.717441  22392.389273  35413.107450 999999.999999
*  2023  1 27 17 30  0.00000000
PL64   2842.080224   -975.341851   6177.349115    -12.670417
VL64 -64464.999994  23041.587742  33156.254569 999999.999999
*  2023  1 27 17 30 30.00000000
PL64   2647.314114   -905.269638   6273.386530 999999.999999
VL64 -65366.739066  23669.606058  30862.796102 999999.999999
*  2023  1 27 17 31  0.00000000
PL64   2449.954222   -833.346405   6362.491806    -11.751766
VL64 -66194.047988  24275.434059  28535.252631 999999.999999
*  2023  1 27 17 31 30.00000000
PL64   2250.225059   -759.640213   6444.566515    -11.293470
VL64 -66946.126685  24858.082606  26176.179947 999999.999999
*  2023  1 27 17 32  0.00000000
PL64   2048.353410   -684.222057   6519.519943    -10.836940
VL64 -67622.260426  25416.584284  23788.165884 999999.999999
*  2023  1 27 17 32 30.00000000
PL64   1844.568074   -607.165800   6587.269187    -10.382886
VL64 -68221.820376  25949.994300  21373.829018 999999.999999
*  2023  1 27 17 33  0.00000000
PL64   1639.099606   -528.548104   6647.739241     -9.927553
VL64 -68744.264985  26457.392214  18935.816172 999999.999999
*  2023  1 27 17 33 30.00000000
PL64   1432.180055   -448.448354   6700.863078     -9.470256
VL64 -69189.141214  26937.883877  16476.798284 999999.999999
*  2023  1 27 17 34  0.00000000
PL64   1224.042695   -366.948575   6746.581714     -9.011746
VL64 -69556.083578  27390.602226  13999.465070 999999.999999
*  2023  1 27 17 34 30.00000000
PL64   1014.921771   -284.133355   6784.844260     -8.552652
VL64 -69844.810858  27814.707273  11506.523808 999999.999999
*  2023  1 27 17 35  0.00000000
PL64    805.052244   -200.089757   6815.607975     -8.093181
VL64 -70055.126778  28209.387731   9000.701153 999999.999999
*  2023  1 27 17 35 30.00000000
PL64    594.669533   -114.907235   6838.838328     -7.633424
VL64 -70186.923297  28573.863320   6484.740221 999999.999999
*  2023  1 27 17 36  0.00000000
PL64    384.009247    -28.677532   6854.509032     -7.173594
VL64 -70240.180663  28907.385911   3961.395142 999999.999999
*  2023  1 27 17 36 30.00000000
PL64    173.306924     58.505412   6862.602076     -6.713775
VL64 -70214.965958  29209.240412   1433.427794 999999.999999
*  2023  1 27 17 37  0.00000000
PL64    -37.202228    146.545561   6863.107744     -6.254020
VL64 -70111.432717  29478.745990  -1096.394306 999999.999999
*  2023  1 27 17 37 30.00000000
PL64   -247.283591    235.344892   6856.024626     -5.794433
VL64 -69929.821032  29715.257281  -3625.300746 999999.999999
*  2023  1 27 17 38  0.00000000
PL64   -456.703398    324.803500   6841.359626     -5.335009
VL64 -69670.456928  29918.165236  -6150.521116 999999.999999
*  2023  1 27 17 38 30.00000000
PL64   -665.228989    414.819707   6819.127954     -4.875488
VL64 -69333.751982  30086.898269  -8669.287227 999999.999999
EOF
